CCSDS_OMM_VERS = 2.0
CREATION_DATE  = 
ORIGINATOR     = 

OBJECT_NAME    = SL-14 R/B
OBJECT_ID      = 1991-042B
CENTER_NAME    = EARTH
REF_FRAME      = TEME
TIME_SYSTEM    = UTC
MEAN_ELEMENT_THEORY = SGP/SGP4

EPOCH          = 2026-02-21T11:36:51.602976
MEAN_MOTION    = 14.81811647
ECCENTRICITY   = .0015673
INCLINATION    = 82.4896
RA_OF_ASC_NODE = 235.3812
ARG_OF_PERICENTER = 296.7844
MEAN_ANOMALY   = 63.1766

EPHEMERIS_TYPE = 0
CLASSIFICATION_TYPE = U
NORAD_CAT_ID   = 21423
ELEMENT_SET_NO = 999
REV_AT_EPOCH   = 85067
BSTAR          = .46931074E-4
MEAN_MOTION_DOT = .394E-5
MEAN_MOTION_DDOT = 0

CCSDS_OMM_VERS = 2.0
CREATION_DATE  = 
ORIGINATOR     = 

OBJECT_NAME    = ERS-1
OBJECT_ID      = 1991-050A
CENTER_NAME    = EARTH
REF_FRAME      = TEME
TIME_SYSTEM    = UTC
MEAN_ELEMENT_THEORY = SGP/SGP4

EPOCH          = 2026-02-21T15:21:54.787680
MEAN_MOTION    = 14.39435221
ECCENTRICITY   = .00309568
INCLINATION    = 98.7892
RA_OF_ASC_NODE = 70.4711
ARG_OF_PERICENTER = 249.2179
MEAN_ANOMALY   = 110.5691

EPHEMERIS_TYPE = 0
CLASSIFICATION_TYPE = U
NORAD_CAT_ID   = 21574
ELEMENT_SET_NO = 999
REV_AT_EPOCH   = 81342
BSTAR          = .92933558E-4
MEAN_MOTION_DOT = .244E-5
MEAN_MOTION_DDOT = 0

CCSDS_OMM_VERS = 2.0
CREATION_DATE  = 
ORIGINATOR     = 

OBJECT_NAME    = ARIANE 40 R/B
OBJECT_ID      = 1991-050F
CENTER_NAME    = EARTH
REF_FRAME      = TEME
TIME_SYSTEM    = UTC
MEAN_ELEMENT_THEORY = SGP/SGP4

EPOCH          = 2026-02-21T17:30:15.103872
MEAN_MOTION    = 14.42880690
ECCENTRICITY   = .00042756
INCLINATION    = 98.2049
RA_OF_ASC_NODE = 105.5621
ARG_OF_PERICENTER = 116.1485
MEAN_ANOMALY   = 244.0146

EPHEMERIS_TYPE = 0
CLASSIFICATION_TYPE = U
NORAD_CAT_ID   = 21610
ELEMENT_SET_NO = 999
REV_AT_EPOCH   = 81669
BSTAR          = .80071813E-4
MEAN_MOTION_DOT = .226E-5
MEAN_MOTION_DDOT = 0

CCSDS_OMM_VERS = 2.0
CREATION_DATE  = 
ORIGINATOR     = 

OBJECT_NAME    = INTERCOSMOS 25
OBJECT_ID      = 1991-086A
CENTER_NAME    = EARTH
REF_FRAME      = TEME
TIME_SYSTEM    = UTC
MEAN_ELEMENT_THEORY = SGP/SGP4

EPOCH          = 2026-02-21T17:22:20.714304
MEAN_MOTION    = 12.11949932
ECCENTRICITY   = .1487044
INCLINATION    = 82.6077
RA_OF_ASC_NODE = 319.6565
ARG_OF_PERICENTER = 151.3247
MEAN_ANOMALY   = 217.8538

EPHEMERIS_TYPE = 0
CLASSIFICATION_TYPE = U
NORAD_CAT_ID   = 21819
ELEMENT_SET_NO = 999
REV_AT_EPOCH   = 49475
BSTAR          = .16049656E-3
MEAN_MOTION_DOT = .848E-5
MEAN_MOTION_DDOT = 0

CCSDS_OMM_VERS = 2.0
CREATION_DATE  = 
ORIGINATOR     = 

OBJECT_NAME    = SL-8 R/B
OBJECT_ID      = 1992-008B
CENTER_NAME    = EARTH
REF_FRAME      = TEME
TIME_SYSTEM    = UTC
MEAN_ELEMENT_THEORY = SGP/SGP4

EPOCH          = 2026-02-21T17:24:06.145632
MEAN_MOTION    = 13.75970059
ECCENTRICITY   = .00346463
INCLINATION    = 82.9241
RA_OF_ASC_NODE = 279.6563
ARG_OF_PERICENTER = 177.1705
MEAN_ANOMALY   = 248.9406

EPHEMERIS_TYPE = 0
CLASSIFICATION_TYPE = U
NORAD_CAT_ID   = 21876
ELEMENT_SET_NO = 999
REV_AT_EPOCH   = 70722
BSTAR          = -.795376E-6
MEAN_MOTION_DOT = .15E-6
MEAN_MOTION_DDOT = 0

CCSDS_OMM_VERS = 2.0
CREATION_DATE  = 
ORIGINATOR     = 

OBJECT_NAME    = SL-8 R/B
OBJECT_ID      = 1992-020B
CENTER_NAME    = EARTH
REF_FRAME      = TEME
TIME_SYSTEM    = UTC
MEAN_ELEMENT_THEORY = SGP/SGP4

EPOCH          = 2026-02-21T18:31:54.718176
MEAN_MOTION    = 13.75547378
ECCENTRICITY   = .00284178
INCLINATION    = 82.9343
RA_OF_ASC_NODE = 165.5759
ARG_OF_PERICENTER = 344.7094
MEAN_ANOMALY   = 125.1244

EPHEMERIS_TYPE = 0
CLASSIFICATION_TYPE = U
NORAD_CAT_ID   = 21938
ELEMENT_SET_NO = 999
REV_AT_EPOCH   = 69894
BSTAR          = .87127517E-4
MEAN_MOTION_DOT = .99E-6
MEAN_MOTION_DDOT = 0

CCSDS_OMM_VERS = 2.0
CREATION_DATE  = 
ORIGINATOR     = 

OBJECT_NAME    = USA 81
OBJECT_ID      = 1992-023A
CENTER_NAME    = EARTH
REF_FRAME      = TEME
TIME_SYSTEM    = UTC
MEAN_ELEMENT_THEORY = SGP/SGP4

EPOCH          = 2026-02-21T17:32:56.628672
MEAN_MOTION    = 14.32361925
ECCENTRICITY   = .00027371
INCLINATION    = 85.0113
RA_OF_ASC_NODE = 140.6446
ARG_OF_PERICENTER = 92.2473
MEAN_ANOMALY   = 267.9033

EPHEMERIS_TYPE = 0
CLASSIFICATION_TYPE = U
NORAD_CAT_ID   = 21949
ELEMENT_SET_NO = 999
REV_AT_EPOCH   = 9250
BSTAR          = .58103595E-4
MEAN_MOTION_DOT = .177E-5
MEAN_MOTION_DDOT = 0

CCSDS_OMM_VERS = 2.0
CREATION_DATE  = 
ORIGINATOR     = 

OBJECT_NAME    = COSMOS 2219
OBJECT_ID      = 1992-076A
CENTER_NAME    = EARTH
REF_FRAME      = TEME
TIME_SYSTEM    = UTC
MEAN_ELEMENT_THEORY = SGP/SGP4

EPOCH          = 2026-02-21T23:00:21.485664
MEAN_MOTION    = 14.14081477
ECCENTRICITY   = .00197099
INCLINATION    = 71.0591
RA_OF_ASC_NODE = 50.9534
ARG_OF_PERICENTER = 228.1238
MEAN_ANOMALY   = 131.8203

EPHEMERIS_TYPE = 0
CLASSIFICATION_TYPE = U
NORAD_CAT_ID   = 22219
ELEMENT_SET_NO = 999
REV_AT_EPOCH   = 71615
BSTAR          = .18815244E-3
MEAN_MOTION_DOT = .312E-5
MEAN_MOTION_DDOT = 0

CCSDS_OMM_VERS = 2.0
CREATION_DATE  = 
ORIGINATOR     = 

OBJECT_NAME    = SL-16 R/B
OBJECT_ID      = 1992-076B
CENTER_NAME    = EARTH
REF_FRAME      = TEME
TIME_SYSTEM    = UTC
MEAN_ELEMENT_THEORY = SGP/SGP4

EPOCH          = 2026-02-21T21:36:07.266240
MEAN_MOTION    = 14.16855018
ECCENTRICITY   = .00110585
INCLINATION    = 70.9979
RA_OF_ASC_NODE = 221.6329
ARG_OF_PERICENTER = 125.5899
MEAN_ANOMALY   = 26.6119

EPHEMERIS_TYPE = 0
CLASSIFICATION_TYPE = U
NORAD_CAT_ID   = 22220
ELEMENT_SET_NO = 999
REV_AT_EPOCH   = 71959
BSTAR          = .76155942E-4
MEAN_MOTION_DOT = .105E-5
MEAN_MOTION_DDOT = 0

CCSDS_OMM_VERS = 2.0
CREATION_DATE  = 
ORIGINATOR     = 

OBJECT_NAME    = COSMOS 2221
OBJECT_ID      = 1992-080A
CENTER_NAME    = EARTH
REF_FRAME      = TEME
TIME_SYSTEM    = UTC
MEAN_ELEMENT_THEORY = SGP/SGP4

EPOCH          = 2026-02-21T17:16:55.195392
MEAN_MOTION    = 14.96133650
ECCENTRICITY   = .00129358
INCLINATION    = 82.5035
RA_OF_ASC_NODE = 294.3781
ARG_OF_PERICENTER = 244.6838
MEAN_ANOMALY   = 115.3044

EPHEMERIS_TYPE = 0
CLASSIFICATION_TYPE = U
NORAD_CAT_ID   = 22236
ELEMENT_SET_NO = 999
REV_AT_EPOCH   = 77840
BSTAR          = .13037708E-3
MEAN_MOTION_DOT = .1495E-4
MEAN_MOTION_DDOT = 0

CCSDS_OMM_VERS = 2.0
CREATION_DATE  = 
ORIGINATOR     = 

OBJECT_NAME    = SL-16 R/B
OBJECT_ID      = 1992-093B
CENTER_NAME    = EARTH
REF_FRAME      = TEME
TIME_SYSTEM    = UTC
MEAN_ELEMENT_THEORY = SGP/SGP4

EPOCH          = 2026-02-21T09:57:10.935360
MEAN_MOTION    = 14.15447043
ECCENTRICITY   = .00057256
INCLINATION    = 71.0218
RA_OF_ASC_NODE = 38.4305
ARG_OF_PERICENTER = 311.1482
MEAN_ANOMALY   = 48.9146

EPHEMERIS_TYPE = 0
CLASSIFICATION_TYPE = U
NORAD_CAT_ID   = 22285
ELEMENT_SET_NO = 999
REV_AT_EPOCH   = 71085
BSTAR          = .16387548E-3
MEAN_MOTION_DOT = .272E-5
MEAN_MOTION_DDOT = 0

CCSDS_OMM_VERS = 2.0
CREATION_DATE  = 
ORIGINATOR     = 

OBJECT_NAME    = COSMOS 2228
OBJECT_ID      = 1992-094A
CENTER_NAME    = EARTH
REF_FRAME      = TEME
TIME_SYSTEM    = UTC
MEAN_ELEMENT_THEORY = SGP/SGP4

EPOCH          = 2026-02-21T22:44:18.931776
MEAN_MOTION    = 14.97106258
ECCENTRICITY   = .00179955
INCLINATION    = 82.5146
RA_OF_ASC_NODE = 252.3861
ARG_OF_PERICENTER = 359.5874
MEAN_ANOMALY   = 0.5330

EPHEMERIS_TYPE = 0
CLASSIFICATION_TYPE = U
NORAD_CAT_ID   = 22286
ELEMENT_SET_NO = 999
REV_AT_EPOCH   = 77370
BSTAR          = .13956342E-3
MEAN_MOTION_DOT = .1641E-4
MEAN_MOTION_DDOT = 0

