SL-14 R/B               
1 21423U 91042B   26052.48393059  .00000394  00000+0  46931-4 0  9996
2 21423  82.4896 235.3812 0015673 296.7844  63.1766 14.81811647850673
ERS-1                   
1 21574U 91050A   26052.64021745  .00000244  00000+0  92934-4 0  9998
2 21574  98.7892  70.4711 0030956 249.2179 110.5691 14.39435221813426
ARIANE 40 R/B           
1 21610U 91050F   26052.72934148  .00000226  00000+0  80072-4 0  9998
2 21610  98.2049 105.5621 0004275 116.1485 244.0146 14.42880690816691
INTERCOSMOS 25          
1 21819U 91086A   26052.72385086  .00000848  00000+0  16050-3 0  9993
2 21819  82.6077 319.6565 1487044 151.3247 217.8538 12.11949932494753
SL-8 R/B                
1 21876U 92008B   26052.72507113  .00000015  00000+0 -79538-6 0  9998
2 21876  82.9241 279.6563 0034646 177.1705 248.9406 13.75970059707228
SL-8 R/B                
1 21938U 92020B   26052.77216109  .00000099  00000+0  87128-4 0  9991
2 21938  82.9343 165.5759 0028417 344.7094 125.1244 13.75547378698940
USA 81                  
1 21949U 92023A   26052.73121098  .00000177  00000+0  58104-4 0  9993
2 21949  85.0113 140.6446 0002737  92.2473 267.9033 14.32361925 92508
COSMOS 2219             
1 22219U 92076A   26052.95858201  .00000312  00000+0  18815-3 0  9994
2 22219  71.0591  50.9534 0019709 228.1238 131.8203 14.14081477716154
SL-16 R/B               
1 22220U 92076B   26052.90008410  .00000105  00000+0  76156-4 0  9993
2 22220  70.9979 221.6329 0011058 125.5899  26.6119 14.16855018719595
COSMOS 2221             
1 22236U 92080A   26052.72008328  .00001495  00000+0  13038-3 0  9995
2 22236  82.5035 294.3781 0012935 244.6838 115.3044 14.96133650778401
SL-16 R/B               
1 22285U 92093B   26052.41470990  .00000272  00000+0  16388-3 0  9990
2 22285  71.0218  38.4305 0005725 311.1482  48.9146 14.15447043710858
COSMOS 2228             
1 22286U 92094A   26052.94744134  .00001641  00000+0  13956-3 0  9993
2 22286  82.5146 252.3861 0017995 359.5874   0.5330 14.97106258773705
